{
    "links": {
        "self": "http://www.neowsapp.com/rest/v1/neo/3943373?api_key=iIulBulltgU6a56xZRHN4H3l9WmuAYTsLGpBGhQ2"
    },
    "id": "3943373",
    "neo_reference_id": "3943373",
    "name": "(2019 YL2)",
    "designation": "2019 YL2",
    "nasa_jpl_url": "http://ssd.jpl.nasa.gov/sbdb.cgi?sstr=3943373",
    "absolute_magnitude_h": 24.7,
    "estimated_diameter": {
        "kilometers": {
            "estimated_diameter_min": 0.0305179233,
            "estimated_diameter_max": 0.0682401509
        },
        "meters": {
            "estimated_diameter_min": 30.5179232594,
            "estimated_diameter_max": 68.2401509401
        },
        "miles": {
            "estimated_diameter_min": 0.0189629525,
            "estimated_diameter_max": 0.0424024508
        },
        "feet": {
            "estimated_diameter_min": 100.1244233463,
            "estimated_diameter_max": 223.8850168104
        }
    },
    "is_potentially_hazardous_asteroid": false,
    "close_approach_data": [
        {
            "close_approach_date": "2019-12-22",
            "close_approach_date_full": "2019-Dec-22 05:23",
            "epoch_date_close_approach": 1576992180000,
            "relative_velocity": {
                "kilometers_per_second": "8.5503070403",
                "kilometers_per_hour": "30781.1053450736",
                "miles_per_hour": "19126.1818184431"
            },
            "miss_distance": {
                "astronomical": "0.1164328285",
                "lunar": "45.2923702865",
                "kilometers": "17418103.141675295",
                "miles": "10823107.418077271"
            },
            "orbiting_body": "Earth"
        }
    ],
    "orbital_data": {
        "orbit_id": "2",
        "orbit_determination_date": "2020-01-04 05:13:37",
        "first_observation_date": "2019-12-20",
        "last_observation_date": "2019-12-22",
        "data_arc_in_days": 2,
        "observations_used": 23,
        "orbit_uncertainty": "9",
        "minimum_orbit_intersection": ".092647",
        "jupiter_tisserand_invariant": "4.334",
        "epoch_osculation": "2458838.5",
        "eccentricity": ".316451454609301",
        "semi_major_axis": "1.566394375645445",
        "inclination": "13.57061385508318",
        "ascending_node_longitude": "268.3686087725725",
        "orbital_period": "716.0611299096659",
        "perihelion_distance": "1.070706596980616",
        "perihelion_argument": "194.07555903",
        "aphelion_distance": "2.062082154310274",
        "perihelion_time": "2458848.159142937697",
        "mean_anomaly": "355.1438622872748",
        "mean_motion": ".5027503727864904",
        "equinox": "J2000",
        "orbit_class": {
            "orbit_class_type": "AMO",
            "orbit_class_description": "Near-Earth asteroid orbits similar to that of 1221 Amor",
            "orbit_class_range": "1.017 AU < q (perihelion) < 1.3 AU"
        }
    },
    "is_sentry_object": false
}